STARLETTE               
1 07646U 75010A   20330.51130140 -.00000128  00000-0  10713-4 0  9997
2 07646  49.8227 195.7844 0205720 198.2047 161.1402 13.82308381313786
LAGEOS 1                
1 08820U 76039A   20330.41922170 -.00000003  00000-0  00000-0 0  9991
2 08820 109.8120 204.0644 0044776  15.9824 166.3480  6.38664760783820
AJISAI (EGS)            
1 16908U 86061A   20330.54268689 -.00000101  00000-0 -25023-4 0  9991
2 16908  50.0094 268.3610 0011488  54.0949 127.3367 12.44492837227793
COSMOS 1989 (ETALON 1)  
1 19751U 89001C   20330.29912826  .00000102  00000-0  00000-0 0  9991
2 19751  64.2035 141.9480 0022904 211.0831 176.5051  2.13156388248102
COSMOS 2024 (ETALON 2)  
1 20026U 89039C   20330.52515350 -.00000072  00000-0  00000+0 0  9992
2 20026  65.5179  19.6683 0018352 220.4711 155.5391  2.13204416245221
LAGEOS 2                
1 22195U 92070B   20330.19419083 -.00000009  00000-0  00000-0 0  9990
2 22195  52.6482 109.5601 0137279  19.6770 255.9135  6.47294068664214
STELLA                  
1 22824U 93061B   20330.57852854 -.00000038  00000-0  36333-5 0  9994
2 22824  98.9722 325.5151 0006532  10.8851 154.4661 14.27382325415226
LARES                   
1 38077U 12006A   20330.51339255 -.00000070  00000-0 -19203-3 0  9992
2 38077  69.4895 159.1069 0008897 174.0739 186.0402 12.54930857402520
